CCSDS_OMM_VERS = 2.0
CREATION_DATE  = 
ORIGINATOR     = 

OBJECT_NAME    = UNKNOWN
OBJECT_ID      = 
CENTER_NAME    = EARTH
REF_FRAME      = TEME
TIME_SYSTEM    = UTC
MEAN_ELEMENT_THEORY = SGP/SGP4

EPOCH          = 2026-02-04T02:20:04.850304
MEAN_MOTION    = 14.83928518
ECCENTRICITY   = .0009937
INCLINATION    = 98.3934
RA_OF_ASC_NODE = 267.4581
ARG_OF_PERICENTER = 338.9158
MEAN_ANOMALY   = 21.1644

EPHEMERIS_TYPE = 0
CLASSIFICATION_TYPE = U
NORAD_CAT_ID   = 82381
ELEMENT_SET_NO = 999
REV_AT_EPOCH   = 51871
BSTAR          = .32858E-2
MEAN_MOTION_DOT = .27371E-3
MEAN_MOTION_DDOT = 0

CCSDS_OMM_VERS = 2.0
CREATION_DATE  = 
ORIGINATOR     = 

OBJECT_NAME    = UNKNOWN
OBJECT_ID      = 
CENTER_NAME    = EARTH
REF_FRAME      = TEME
TIME_SYSTEM    = UTC
MEAN_ELEMENT_THEORY = SGP/SGP4

EPOCH          = 2026-02-01T17:44:23.329824
MEAN_MOTION    = 15.04357115
ECCENTRICITY   = .0007459
INCLINATION    = 86.6643
RA_OF_ASC_NODE = 133.5724
ARG_OF_PERICENTER = 353.4357
MEAN_ANOMALY   = 6.6779

EPHEMERIS_TYPE = 0
CLASSIFICATION_TYPE = U
NORAD_CAT_ID   = 82402
ELEMENT_SET_NO = 999
REV_AT_EPOCH   = 46213
BSTAR          = .45982E-3
MEAN_MOTION_DOT = .6444E-4
MEAN_MOTION_DDOT = 0

CCSDS_OMM_VERS = 2.0
CREATION_DATE  = 
ORIGINATOR     = 

OBJECT_NAME    = UNKNOWN
OBJECT_ID      = 
CENTER_NAME    = EARTH
REF_FRAME      = TEME
TIME_SYSTEM    = UTC
MEAN_ELEMENT_THEORY = SGP/SGP4

EPOCH          = 2026-02-02T23:44:07.288800
MEAN_MOTION    = 14.58810331
ECCENTRICITY   = .0055151
INCLINATION    = 74.0042
RA_OF_ASC_NODE = 240.9116
ARG_OF_PERICENTER = 31.5392
MEAN_ANOMALY   = 328.9058

EPHEMERIS_TYPE = 0
CLASSIFICATION_TYPE = U
NORAD_CAT_ID   = 82432
ELEMENT_SET_NO = 999
REV_AT_EPOCH   = 49052
BSTAR          = .31665E-3
MEAN_MOTION_DOT = .1481E-4
MEAN_MOTION_DDOT = 0

CCSDS_OMM_VERS = 2.0
CREATION_DATE  = 
ORIGINATOR     = 

OBJECT_NAME    = UNKNOWN
OBJECT_ID      = 
CENTER_NAME    = EARTH
REF_FRAME      = TEME
TIME_SYSTEM    = UTC
MEAN_ELEMENT_THEORY = SGP/SGP4

EPOCH          = 2026-02-07T08:50:39.817824
MEAN_MOTION    = 15.04659229
ECCENTRICITY   = .0010087
INCLINATION    = 85.8758
RA_OF_ASC_NODE = 169.0600
ARG_OF_PERICENTER = 59.6707
MEAN_ANOMALY   = 300.5523

EPHEMERIS_TYPE = 0
CLASSIFICATION_TYPE = U
NORAD_CAT_ID   = 82448
ELEMENT_SET_NO = 999
REV_AT_EPOCH   = 44555
BSTAR          = .7807E-3
MEAN_MOTION_DOT = .11021E-3
MEAN_MOTION_DDOT = 0

CCSDS_OMM_VERS = 2.0
CREATION_DATE  = 
ORIGINATOR     = 

OBJECT_NAME    = UNKNOWN
OBJECT_ID      = 
CENTER_NAME    = EARTH
REF_FRAME      = TEME
TIME_SYSTEM    = UTC
MEAN_ELEMENT_THEORY = SGP/SGP4

EPOCH          = 2026-02-04T08:08:22.821792
MEAN_MOTION    = 12.39706636
ECCENTRICITY   = .0093737
INCLINATION    = 102.1864
RA_OF_ASC_NODE = 356.6849
ARG_OF_PERICENTER = 108.0065
MEAN_ANOMALY   = 253.1239

EPHEMERIS_TYPE = 0
CLASSIFICATION_TYPE = U
NORAD_CAT_ID   = 82453
ELEMENT_SET_NO = 999
REV_AT_EPOCH   = 55270
BSTAR          = .30609E-3
MEAN_MOTION_DOT = -.4E-7
MEAN_MOTION_DDOT = 0

CCSDS_OMM_VERS = 2.0
CREATION_DATE  = 
ORIGINATOR     = 

OBJECT_NAME    = UNKNOWN
OBJECT_ID      = 
CENTER_NAME    = EARTH
REF_FRAME      = TEME
TIME_SYSTEM    = UTC
MEAN_ELEMENT_THEORY = SGP/SGP4

EPOCH          = 2026-01-27T19:19:32.278080
MEAN_MOTION    = 14.23291843
ECCENTRICITY   = .0057759
INCLINATION    = 66.5137
RA_OF_ASC_NODE = 63.4517
ARG_OF_PERICENTER = 335.2450
MEAN_ANOMALY   = 24.5873

EPHEMERIS_TYPE = 0
CLASSIFICATION_TYPE = U
NORAD_CAT_ID   = 82458
ELEMENT_SET_NO = 999
REV_AT_EPOCH   = 61659
BSTAR          = .2137E-2
MEAN_MOTION_DOT = .4849E-4
MEAN_MOTION_DDOT = 0

CCSDS_OMM_VERS = 2.0
CREATION_DATE  = 
ORIGINATOR     = 

OBJECT_NAME    = UNKNOWN
OBJECT_ID      = 
CENTER_NAME    = EARTH
REF_FRAME      = TEME
TIME_SYSTEM    = UTC
MEAN_ELEMENT_THEORY = SGP/SGP4

EPOCH          = 2026-02-06T00:21:37.436832
MEAN_MOTION    = 13.55819907
ECCENTRICITY   = .0045359
INCLINATION    = 99.3523
RA_OF_ASC_NODE = 60.7890
ARG_OF_PERICENTER = 55.4561
MEAN_ANOMALY   = 305.0846

EPHEMERIS_TYPE = 0
CLASSIFICATION_TYPE = U
NORAD_CAT_ID   = 82484
ELEMENT_SET_NO = 999
REV_AT_EPOCH   = 59812
BSTAR          = .20747E-3
MEAN_MOTION_DOT = .104E-5
MEAN_MOTION_DDOT = 0

CCSDS_OMM_VERS = 2.0
CREATION_DATE  = 
ORIGINATOR     = 

OBJECT_NAME    = UNKNOWN
OBJECT_ID      = 
CENTER_NAME    = EARTH
REF_FRAME      = TEME
TIME_SYSTEM    = UTC
MEAN_ELEMENT_THEORY = SGP/SGP4

EPOCH          = 2026-02-07T00:51:25.833024
MEAN_MOTION    = 14.88633387
ECCENTRICITY   = .000396
INCLINATION    = 74.0063
RA_OF_ASC_NODE = 269.4720
ARG_OF_PERICENTER = 48.4545
MEAN_ANOMALY   = 311.6975

EPHEMERIS_TYPE = 0
CLASSIFICATION_TYPE = U
NORAD_CAT_ID   = 82494
ELEMENT_SET_NO = 999
REV_AT_EPOCH   = 9333
BSTAR          = .24488E-2
MEAN_MOTION_DOT = .22878E-3
MEAN_MOTION_DDOT = 0

CCSDS_OMM_VERS = 2.0
CREATION_DATE  = 
ORIGINATOR     = 

OBJECT_NAME    = UNKNOWN
OBJECT_ID      = 
CENTER_NAME    = EARTH
REF_FRAME      = TEME
TIME_SYSTEM    = UTC
MEAN_ELEMENT_THEORY = SGP/SGP4

EPOCH          = 2026-02-03T20:29:10.425696
MEAN_MOTION    = 14.19001250
ECCENTRICITY   = .0117114
INCLINATION    = 70.9644
RA_OF_ASC_NODE = 251.4033
ARG_OF_PERICENTER = 33.9891
MEAN_ANOMALY   = 326.8664

EPHEMERIS_TYPE = 0
CLASSIFICATION_TYPE = U
NORAD_CAT_ID   = 82500
ELEMENT_SET_NO = 999
REV_AT_EPOCH   = 62648
BSTAR          = .17524E-2
MEAN_MOTION_DOT = .3871E-4
MEAN_MOTION_DDOT = 0

CCSDS_OMM_VERS = 2.0
CREATION_DATE  = 
ORIGINATOR     = 

OBJECT_NAME    = UNKNOWN
OBJECT_ID      = 
CENTER_NAME    = EARTH
REF_FRAME      = TEME
TIME_SYSTEM    = UTC
MEAN_ELEMENT_THEORY = SGP/SGP4

EPOCH          = 2026-02-04T02:20:09.672288
MEAN_MOTION    = 14.35791588
ECCENTRICITY   = .0134462
INCLINATION    = 73.2802
RA_OF_ASC_NODE = 79.3719
ARG_OF_PERICENTER = 206.7808
MEAN_ANOMALY   = 183.7658

EPHEMERIS_TYPE = 0
CLASSIFICATION_TYPE = U
NORAD_CAT_ID   = 82524
ELEMENT_SET_NO = 999
REV_AT_EPOCH   = 58469
BSTAR          = .24893E-2
MEAN_MOTION_DOT = .796E-4
MEAN_MOTION_DDOT = 0

CCSDS_OMM_VERS = 2.0
CREATION_DATE  = 
ORIGINATOR     = 

OBJECT_NAME    = UNKNOWN
OBJECT_ID      = 
CENTER_NAME    = EARTH
REF_FRAME      = TEME
TIME_SYSTEM    = UTC
MEAN_ELEMENT_THEORY = SGP/SGP4

EPOCH          = 2026-02-03T04:27:59.858208
MEAN_MOTION    = 13.41166809
ECCENTRICITY   = .0239059
INCLINATION    = 99.7854
RA_OF_ASC_NODE = 120.9223
ARG_OF_PERICENTER = 113.0594
MEAN_ANOMALY   = 280.2786

EPHEMERIS_TYPE = 0
CLASSIFICATION_TYPE = U
NORAD_CAT_ID   = 82529
ELEMENT_SET_NO = 999
REV_AT_EPOCH   = 59677
BSTAR          = .64171E-3
MEAN_MOTION_DOT = .379E-5
MEAN_MOTION_DDOT = 0

CCSDS_OMM_VERS = 2.0
CREATION_DATE  = 
ORIGINATOR     = 

OBJECT_NAME    = UNKNOWN
OBJECT_ID      = 
CENTER_NAME    = EARTH
REF_FRAME      = TEME
TIME_SYSTEM    = UTC
MEAN_ELEMENT_THEORY = SGP/SGP4

EPOCH          = 2026-02-05T19:21:17.064000
MEAN_MOTION    = 13.90827140
ECCENTRICITY   = .000959
INCLINATION    = 99.9947
RA_OF_ASC_NODE = 348.4517
ARG_OF_PERICENTER = 155.6479
MEAN_ANOMALY   = 233.9346

EPHEMERIS_TYPE = 0
CLASSIFICATION_TYPE = U
NORAD_CAT_ID   = 82560
ELEMENT_SET_NO = 999
REV_AT_EPOCH   = 61952
BSTAR          = .14806E-2
MEAN_MOTION_DOT = .1803E-4
MEAN_MOTION_DDOT = 0

