UNKNOWN                 
1 82381U          26035.09727836  .00027371  00000+0  32858-2 0  9997
2 82381  98.3934 267.4581 0009937 338.9158  21.1644 14.83928518518717
UNKNOWN                 
1 82402U          26032.73915891  .00006444  00000+0  45982-3 0  9990
2 82402  86.6643 133.5724 0007459 353.4357   6.6779 15.04357115462134
UNKNOWN                 
1 82432U          26033.98897325  .00001481  00000+0  31665-3 0  9991
2 82432  74.0042 240.9116 0055151  31.5392 328.9058 14.58810331490520
UNKNOWN                 
1 82448U          26038.36851641  .00011021  00000+0  78070-3 0  9998
2 82448  85.8758 169.0600 0010087  59.6707 300.5523 15.04659229445555
UNKNOWN                 
1 82453U          26035.33915303 -.00000004  00000+0  30609-3 0  9990
2 82453 102.1864 356.6849 0093737 108.0065 253.1239 12.39706636552703
UNKNOWN                 
1 82458U          26027.80523470  .00004849  00000+0  21370-2 0  9992
2 82458  66.5137  63.4517 0057759 335.2450  24.5873 14.23291843616591
UNKNOWN                 
1 82484U          26037.01501663  .00000104  00000+0  20747-3 0  9993
2 82484  99.3523  60.7890 0045359  55.4561 305.0846 13.55819907598120
UNKNOWN                 
1 82494U          26038.03571566  .00022878  00000+0  24488-2 0  9993
2 82494  74.0063 269.4720 0003960  48.4545 311.6975 14.88633387 93338
UNKNOWN                 
1 82500U          26034.85359289  .00003871  00000+0  17524-2 0  9998
2 82500  70.9644 251.4033 0117114  33.9891 326.8664 14.19001250626487
UNKNOWN                 
1 82524U          26035.09733417  .00007960  00000+0  24893-2 0  9990
2 82524  73.2802  79.3719 0134462 206.7808 183.7658 14.35791588584693
UNKNOWN                 
1 82529U          26034.18610947  .00000379  00000+0  64171-3 0  9997
2 82529  99.7854 120.9223 0239059 113.0594 280.2786 13.41166809596776
UNKNOWN                 
1 82560U          26036.80644750  .00001803  00000+0  14806-2 0  9994
2 82560  99.9947 348.4517 0009590 155.6479 233.9346 13.90827140619520
